[{"OBJECT_NAME":"ONEWEB-0380","OBJECT_ID":"2021-090AD","EPOCH":"2026-01-10T20:46:01.075008","MEAN_MOTION":13.19725499,"ECCENTRICITY":0.00018987,"INCLINATION":87.9228,"RA_OF_ASC_NODE":336.2792,"ARG_OF_PERICENTER":87.4396,"MEAN_ANOMALY":272.6954,"EPHEMERIS_TYPE":0,"CLASSIFICATION_TYPE":"U","NORAD_CAT_ID":49306,"ELEMENT_SET_NO":999,"REV_AT_EPOCH":20567,"BSTAR":8.1743476e-5,"MEAN_MOTION_DOT":4.6e-7,"MEAN_MOTION_DDOT":0},{"OBJECT_NAME":"ONEWEB-0381","OBJECT_ID":"2021-090AE","EPOCH":"2026-01-11T06:23:01.556736","MEAN_MOTION":13.20772432,"ECCENTRICITY":0.00019469,"INCLINATION":87.9228,"RA_OF_ASC_NODE":305.7413,"ARG_OF_PERICENTER":80.0011,"MEAN_ANOMALY":280.1342,"EPHEMERIS_TYPE":0,"CLASSIFICATION_TYPE":"U","NORAD_CAT_ID":49307,"ELEMENT_SET_NO":999,"REV_AT_EPOCH":20911,"BSTAR":-0.0010358903,"MEAN_MOTION_DOT":-4.08e-6,"MEAN_MOTION_DDOT":0},{"OBJECT_NAME":"ONEWEB-0382","OBJECT_ID":"2021-090AF","EPOCH":"2026-01-11T06:04:51.878208","MEAN_MOTION":13.20771686,"ECCENTRICITY":0.00020519,"INCLINATION":87.9231,"RA_OF_ASC_NODE":305.7401,"ARG_OF_PERICENTER":76.0664,"MEAN_ANOMALY":284.0698,"EPHEMERIS_TYPE":0,"CLASSIFICATION_TYPE":"U","NORAD_CAT_ID":49308,"ELEMENT_SET_NO":999,"REV_AT_EPOCH":20910,"BSTAR":0.00018232748,"MEAN_MOTION_DOT":8.7e-7,"MEAN_MOTION_DDOT":0},{"OBJECT_NAME":"ONEWEB-0383","OBJECT_ID":"2021-090AG","EPOCH":"2026-01-11T07:19:12.106272","MEAN_MOTION":13.14502686,"ECCENTRICITY":0.00019084,"INCLINATION":87.9023,"RA_OF_ASC_NODE":320.9537,"ARG_OF_PERICENTER":74.7348,"MEAN_ANOMALY":285.3992,"EPHEMERIS_TYPE":0,"CLASSIFICATION_TYPE":"U","NORAD_CAT_ID":49309,"ELEMENT_SET_NO":999,"REV_AT_EPOCH":20698,"BSTAR":0.00074149026,"MEAN_MOTION_DOT":2.88e-6,"MEAN_MOTION_DDOT":0},{"OBJECT_NAME":"ONEWEB-0384","OBJECT_ID":"2021-090AH","EPOCH":"2026-01-11T05:54:27.545760","MEAN_MOTION":13.20801662,"ECCENTRICITY":0.00022704,"INCLINATION":87.924,"RA_OF_ASC_NODE":305.7801,"ARG_OF_PERICENTER":72.7027,"MEAN_ANOMALY":287.4354,"EPHEMERIS_TYPE":0,"CLASSIFICATION_TYPE":"U","NORAD_CAT_ID":49310,"ELEMENT_SET_NO":999,"REV_AT_EPOCH":20911,"BSTAR":0.00013634944,"MEAN_MOTION_DOT":6.8e-7,"MEAN_MOTION_DDOT":0},{"OBJECT_NAME":"ONEWEB-0385","OBJECT_ID":"2021-090AJ","EPOCH":"2026-01-11T05:53:28.983840","MEAN_MOTION":13.20776445,"ECCENTRICITY":0.00018385,"INCLINATION":87.9233,"RA_OF_ASC_NODE":305.7459,"ARG_OF_PERICENTER":77.2781,"MEAN_ANOMALY":282.8557,"EPHEMERIS_TYPE":0,"CLASSIFICATION_TYPE":"U","NORAD_CAT_ID":49311,"ELEMENT_SET_NO":999,"REV_AT_EPOCH":20908,"BSTAR":-0.0027026668,"MEAN_MOTION_DOT":-1.086e-5,"MEAN_MOTION_DDOT":0},{"OBJECT_NAME":"ONEWEB-0386","OBJECT_ID":"2021-090AK","EPOCH":"2026-01-11T06:18:30.512160","MEAN_MOTION":13.20773111,"ECCENTRICITY":0.00019962,"INCLINATION":87.9228,"RA_OF_ASC_NODE":305.7272,"ARG_OF_PERICENTER":74.3808,"MEAN_ANOMALY":285.7546,"EPHEMERIS_TYPE":0,"CLASSIFICATION_TYPE":"U","NORAD_CAT_ID":49312,"ELEMENT_SET_NO":999,"REV_AT_EPOCH":20910,"BSTAR":0.00018145415,"MEAN_MOTION_DOT":8.7e-7,"MEAN_MOTION_DDOT":0},{"OBJECT_NAME":"ONEWEB-0387","OBJECT_ID":"2021-090AL","EPOCH":"2026-01-11T05:55:47.196192","MEAN_MOTION":13.20772142,"ECCENTRICITY":0.00018867,"INCLINATION":87.9221,"RA_OF_ASC_NODE":305.7732,"ARG_OF_PERICENTER":85.1219,"MEAN_ANOMALY":275.013,"EPHEMERIS_TYPE":0,"CLASSIFICATION_TYPE":"U","NORAD_CAT_ID":49313,"ELEMENT_SET_NO":999,"REV_AT_EPOCH":20910,"BSTAR":0.00023617949,"MEAN_MOTION_DOT":1.09e-6,"MEAN_MOTION_DDOT":0},{"OBJECT_NAME":"ONEWEB-0388","OBJECT_ID":"2021-090AM","EPOCH":"2026-01-11T03:55:54.169824","MEAN_MOTION":13.19725684,"ECCENTRICITY":0.00019245,"INCLINATION":87.9222,"RA_OF_ASC_NODE":336.219,"ARG_OF_PERICENTER":80.3869,"MEAN_ANOMALY":279.7481,"EPHEMERIS_TYPE":0,"CLASSIFICATION_TYPE":"U","NORAD_CAT_ID":49314,"ELEMENT_SET_NO":999,"REV_AT_EPOCH":20570,"BSTAR":8.3444653e-5,"MEAN_MOTION_DOT":4.6e-7,"MEAN_MOTION_DDOT":0},{"OBJECT_NAME":"ONEWEB-0389","OBJECT_ID":"2021-132A","EPOCH":"2026-01-11T07:33:01.019232","MEAN_MOTION":13.1764846,"ECCENTRICITY":0.00021571,"INCLINATION":87.9089,"RA_OF_ASC_NODE":37.0527,"ARG_OF_PERICENTER":97.3075,"MEAN_ANOMALY":262.8302,"EPHEMERIS_TYPE":0,"CLASSIFICATION_TYPE":"U","NORAD_CAT_ID":50469,"ELEMENT_SET_NO":999,"REV_AT_EPOCH":19742,"BSTAR":-0.00011212291,"MEAN_MOTION_DOT":-3.1e-7,"MEAN_MOTION_DDOT":0},{"OBJECT_NAME":"ONEWEB-0390","OBJECT_ID":"2021-132B","EPOCH":"2026-01-11T00:18:02.694816","MEAN_MOTION":13.17647998,"ECCENTRICITY":0.00016659,"INCLINATION":87.9085,"RA_OF_ASC_NODE":37.114,"ARG_OF_PERICENTER":101.8674,"MEAN_ANOMALY":258.2644,"EPHEMERIS_TYPE":0,"CLASSIFICATION_TYPE":"U","NORAD_CAT_ID":50470,"ELEMENT_SET_NO":999,"REV_AT_EPOCH":19738,"BSTAR":9.3854403e-5,"MEAN_MOTION_DOT":4.9e-7,"MEAN_MOTION_DDOT":0},{"OBJECT_NAME":"ONEWEB-0391","OBJECT_ID":"2021-132C","EPOCH":"2026-01-11T07:37:52.875840","MEAN_MOTION":13.17650299,"ECCENTRICITY":0.00024626,"INCLINATION":87.9084,"RA_OF_ASC_NODE":37.0623,"ARG_OF_PERICENTER":109.5425,"MEAN_ANOMALY":250.5973,"EPHEMERIS_TYPE":0,"CLASSIFICATION_TYPE":"U","NORAD_CAT_ID":50471,"ELEMENT_SET_NO":999,"REV_AT_EPOCH":19742,"BSTAR":-7.4446357e-5,"MEAN_MOTION_DOT":-1.6e-7,"MEAN_MOTION_DDOT":0},{"OBJECT_NAME":"ONEWEB-0392","OBJECT_ID":"2021-132D","EPOCH":"2026-01-11T02:53:33.933696","MEAN_MOTION":13.17648321,"ECCENTRICITY":0.00021374,"INCLINATION":87.9095,"RA_OF_ASC_NODE":37.0567,"ARG_OF_PERICENTER":99.744,"MEAN_ANOMALY":260.3933,"EPHEMERIS_TYPE":0,"CLASSIFICATION_TYPE":"U","NORAD_CAT_ID":50472,"ELEMENT_SET_NO":999,"REV_AT_EPOCH":19743,"BSTAR":3.285884e-6,"MEAN_MOTION_DOT":1.4e-7,"MEAN_MOTION_DDOT":0},{"OBJECT_NAME":"ONEWEB-0393","OBJECT_ID":"2021-132E","EPOCH":"2026-01-11T07:42:55.604160","MEAN_MOTION":13.1764729,"ECCENTRICITY":0.00019774,"INCLINATION":87.9095,"RA_OF_ASC_NODE":37.0392,"ARG_OF_PERICENTER":96.7234,"MEAN_ANOMALY":263.4123,"EPHEMERIS_TYPE":0,"CLASSIFICATION_TYPE":"U","NORAD_CAT_ID":50473,"ELEMENT_SET_NO":999,"REV_AT_EPOCH":19745,"BSTAR":-9.5011823e-5,"MEAN_MOTION_DOT":-2.4e-7,"MEAN_MOTION_DDOT":0},{"OBJECT_NAME":"ONEWEB-0394","OBJECT_ID":"2021-132F","EPOCH":"2026-01-11T06:16:00.241824","MEAN_MOTION":13.18685132,"ECCENTRICITY":0.0001948,"INCLINATION":87.9186,"RA_OF_ASC_NODE":6.5964,"ARG_OF_PERICENTER":87.9105,"MEAN_ANOMALY":272.225,"EPHEMERIS_TYPE":0,"CLASSIFICATION_TYPE":"U","NORAD_CAT_ID":50474,"ELEMENT_SET_NO":999,"REV_AT_EPOCH":20091,"BSTAR":0.00018282335,"MEAN_MOTION_DOT":8.5e-7,"MEAN_MOTION_DDOT":0},{"OBJECT_NAME":"ONEWEB-0395","OBJECT_ID":"2021-132G","EPOCH":"2026-01-11T03:33:31.634784","MEAN_MOTION":13.11419477,"ECCENTRICITY":0.00017941,"INCLINATION":87.8829,"RA_OF_ASC_NODE":52.3392,"ARG_OF_PERICENTER":105.4584,"MEAN_ANOMALY":254.6742,"EPHEMERIS_TYPE":0,"CLASSIFICATION_TYPE":"U","NORAD_CAT_ID":50475,"ELEMENT_SET_NO":999,"REV_AT_EPOCH":19513,"BSTAR":-0.00055488892,"MEAN_MOTION_DOT":-1.84e-6,"MEAN_MOTION_DDOT":0},{"OBJECT_NAME":"ONEWEB-0396","OBJECT_ID":"2021-132H","EPOCH":"2026-01-10T22:49:28.108992","MEAN_MOTION":13.18685203,"ECCENTRICITY":0.00018874,"INCLINATION":87.9184,"RA_OF_ASC_NODE":6.6701,"ARG_OF_PERICENTER":88.3252,"MEAN_ANOMALY":271.8097,"EPHEMERIS_TYPE":0,"CLASSIFICATION_TYPE":"U","NORAD_CAT_ID":50476,"ELEMENT_SET_NO":999,"REV_AT_EPOCH":20091,"BSTAR":2.4854745e-5,"MEAN_MOTION_DOT":2.3e-7,"MEAN_MOTION_DDOT":0},{"OBJECT_NAME":"ONEWEB-0397","OBJECT_ID":"2021-132J","EPOCH":"2026-01-11T06:27:52.843968","MEAN_MOTION":13.18685641,"ECCENTRICITY":0.0001984,"INCLINATION":87.9184,"RA_OF_ASC_NODE":6.607,"ARG_OF_PERICENTER":84.6935,"MEAN_ANOMALY":275.4424,"EPHEMERIS_TYPE":0,"CLASSIFICATION_TYPE":"U","NORAD_CAT_ID":50477,"ELEMENT_SET_NO":999,"REV_AT_EPOCH":20093,"BSTAR":4.9428189e-5,"MEAN_MOTION_DOT":3.2e-7,"MEAN_MOTION_DDOT":0},{"OBJECT_NAME":"ONEWEB-0398","OBJECT_ID":"2021-132K","EPOCH":"2026-01-11T02:47:08.698560","MEAN_MOTION":13.11416659,"ECCENTRICITY":0.00016224,"INCLINATION":87.8832,"RA_OF_ASC_NODE":52.3211,"ARG_OF_PERICENTER":110.5919,"MEAN_ANOMALY":249.5383,"EPHEMERIS_TYPE":0,"CLASSIFICATION_TYPE":"U","NORAD_CAT_ID":50478,"ELEMENT_SET_NO":999,"REV_AT_EPOCH":19502,"BSTAR":-1.33846e-6,"MEAN_MOTION_DOT":1.2e-7,"MEAN_MOTION_DDOT":0},{"OBJECT_NAME":"ONEWEB-0399","OBJECT_ID":"2021-132L","EPOCH":"2026-01-11T04:17:30.159456","MEAN_MOTION":13.11416259,"ECCENTRICITY":0.00023303,"INCLINATION":87.8827,"RA_OF_ASC_NODE":52.3206,"ARG_OF_PERICENTER":97.7016,"MEAN_ANOMALY":262.4376,"EPHEMERIS_TYPE":0,"CLASSIFICATION_TYPE":"U","NORAD_CAT_ID":50479,"ELEMENT_SET_NO":999,"REV_AT_EPOCH":19502,"BSTAR":0.0015374441,"MEAN_MOTION_DOT":5.58e-6,"MEAN_MOTION_DDOT":0},{"OBJECT_NAME":"ONEWEB-0400","OBJECT_ID":"2021-132M","EPOCH":"2026-01-11T05:57:00.329472","MEAN_MOTION":13.18684557,"ECCENTRICITY":0.00016308,"INCLINATION":87.9183,"RA_OF_ASC_NODE":6.6012,"ARG_OF_PERICENTER":92.3433,"MEAN_ANOMALY":267.7886,"EPHEMERIS_TYPE":0,"CLASSIFICATION_TYPE":"U","NORAD_CAT_ID":50480,"ELEMENT_SET_NO":999,"REV_AT_EPOCH":20092,"BSTAR":-2.301264e-6,"MEAN_MOTION_DOT":1.2e-7,"MEAN_MOTION_DDOT":0},{"OBJECT_NAME":"ONEWEB-0401","OBJECT_ID":"2021-132N","EPOCH":"2026-01-11T05:11:52.881792","MEAN_MOTION":13.18687963,"ECCENTRICITY":0.00018558,"INCLINATION":87.918,"RA_OF_ASC_NODE":6.6035,"ARG_OF_PERICENTER":81.0813,"MEAN_ANOMALY":279.053,"EPHEMERIS_TYPE":0,"CLASSIFICATION_TYPE":"U","NORAD_CAT_ID":50481,"ELEMENT_SET_NO":999,"REV_AT_EPOCH":20092,"BSTAR":2.1748845e-5,"MEAN_MOTION_DOT":2.1e-7,"MEAN_MOTION_DDOT":0},{"OBJECT_NAME":"ONEWEB-0402","OBJECT_ID":"2021-132P","EPOCH":"2026-01-11T06:08:51.978624","MEAN_MOTION":13.18684203,"ECCENTRICITY":0.00019434,"INCLINATION":87.9181,"RA_OF_ASC_NODE":6.588,"ARG_OF_PERICENTER":71.2806,"MEAN_ANOMALY":288.8537,"EPHEMERIS_TYPE":0,"CLASSIFICATION_TYPE":"U","NORAD_CAT_ID":50482,"ELEMENT_SET_NO":999,"REV_AT_EPOCH":20095,"BSTAR":-0.00014751457,"MEAN_MOTION_DOT":-4.5e-7,"MEAN_MOTION_DDOT":0}]
